KUIPER-00272            
1 68588U 26072R   26191.96419083  .00001983  00000+0  28908-3 0  9991
2 68588  51.8985  87.9953 0000837 106.7637 253.3417 14.79919744 14670
KUIPER-00285            
1 68589U 26072S   26192.91670139 -.00603593  00000+0 -81729-1 0  9994
2 68589  51.9422  63.8604 0001021  81.1185 201.2248 14.81271000  5060
KUIPER-00286            
1 68590U 26072T   26192.91670139 -.00059291  00000+0 -65668-2 0  9991
2 68590  51.8991  61.0253 0007092  59.1185 349.7032 14.87099704  5740
KUIPER-00289            
1 68591U 26072U   26192.85824287  .00001818  00000+0  26735-3 0  9993
2 68591  51.8993  69.0589 0000734 127.1529 232.9501 14.79938018 15013
KUIPER-00290            
1 68592U 26072V   26192.91670139 -.00087502  00000+0 -12405-1 0  9999
2 68592  51.9024  67.2106 0002746  29.7910 198.7992 14.77092593  4389
KUIPER-00293            
1 68593U 26072W   26191.09168462  .00002509  00000+0  35806-3 0  9993
2 68593  51.8987  86.8548 0002788 116.1338 243.9912 14.79934757 14616
KUIPER-00294            
1 68594U 26072X   26192.86001724  .00001385  00000+0  21617-3 0  9993
2 68594  51.9007  66.5397 0001697  76.8019 283.3133 14.78783216 15057
KUIPER-00296            
1 68595U 26072Y   26192.91670139 -.00004423  00000+0 -10876-3 0  9995
2 68595  51.8705  57.2400 0009746 109.0972 324.5808 15.37188130  5825
KUIPER-00297            
1 68596U 26072Z   26192.85114419  .00000611  00000+0  11780-3 0  9991
2 68596  51.9006  78.7533 0001157 130.6418 229.4643 14.76357877 14883
KUIPER-00300            
1 68597U 26072AA  26192.84327547  .00000625  00000+0  11959-3 0  9992
2 68597  51.9036  75.8487 0001867 126.4606 233.6527 14.76473997 14928
KUIPER-00301            
1 68598U 26072AB  26192.83805838  .00022917  00000+0  59769-3 0  9995
2 68598  51.8659  57.5693 0009544 110.7214 249.4797 15.38693985 15178
KUIPER-00304            
1 68599U 26072AC  26192.78660423  .00021739  00000+0  57078-3 0  9991
2 68599  51.8675  57.9829 0011809 112.8231 247.4004 15.38499181 15161
KUIPER-00317            
1 68600U 26072AD  26192.82718495  .00003606  00000+0  50140-3 0  9998
2 68600  51.8994  66.7071 0001778 135.7017 224.4088 14.79964514 15040
KUIPER-00320            
1 68601U 26072AE  26192.07896555  .00001951  00000+0  28487-3 0  9990
2 68601  51.9023  75.0040 0000720 119.4256 240.6779 14.79923590 14869
KUIPER-00299            
1 68864U 26095A   26192.29635593  .00001223  00000+0  20465-3 0  9993
2 68864  51.8993 142.5206 0001542 253.6818 106.3973 14.76471190 11207
KUIPER-00353            
1 68865U 26095B   26192.91670139 -.00063128  00000+0 -70155-2 0  9992
2 68865  51.8989 126.4486 0004407  29.8916 357.1695 14.87008629  5204
